ONEWEB-0309             
1 49095U 21075W   23283.52669401 -.00000017  00000+0 -76195-4 0  9994
2 49095  87.9178 200.7581 0001425  58.8245 301.3026 13.17647371104433
ONEWEB-0310             
1 49096U 21075X   23283.44490248 -.00000249  00000+0 -72769-3 0  9996
2 49096  87.9077 185.6562 0001693  64.5301 295.6002 13.12442973106545
ONEWEB-0311             
1 49097U 21075Y   23283.30521890  .00000148  00000+0  34894-3 0  9993
2 49097  87.9178 200.8055 0001619  89.8642 270.2675 13.17651482104456
ONEWEB-0312             
1 49098U 21075Z   23283.46974591  .00000032  00000+0  49787-4 0  9991
2 49098  87.9261 200.7767 0001284  75.1241 285.0033 13.17648696105434
ONEWEB-0313             
1 49099U 21075AA  23283.52458780 -.00000054  00000+0 -17176-3 0  9998
2 49099  87.9251 200.7806 0001469  77.7579 282.3717 13.17648903104456
ONEWEB-0314             
1 49100U 21075AB  23283.51825038 -.00000026  00000+0 -10081-3 0  9991
2 49100  87.9174 200.7559 0001248  79.5766 280.5506 13.17647974104421
ONEWEB-0315             
1 49101U 21075AC  23283.49256727  .00000526  00000+0  14272-2 0  9990
2 49101  87.9070 185.6564 0002045  79.0588 281.0770 13.12444638107538
ONEWEB-0316             
1 49102U 21075AD  23283.45518291 -.00000083  00000+0 -24293-3 0  9999
2 49102  87.9209 170.5522 0001665  85.4854 274.6468 13.18685496107957
